     2.100          NAVIGATION                              RINEX VERSION / TYPE
fic2rin                                 07/19/2010 00:07:11 PGM / RUN BY / DATE
                                                            END OF HEADER
18 10  7 18 14  0  0.0  .815670937300D-04  .238742359215D-11  .000000000000D+00
     .200000000000D+02  .746875000000D+02  .535200864693D-08 -.324132646751D+00
     .409223139286D-05  .116805162979D-01  .537000596523D-05  .515370773888D+04
     .504000000000D+05 -.372529029846D-07 -.563542670706D+00  .152736902237D-06
     .936734624883D+00  .265781250000D+03 -.231894595386D+01 -.872572060414D-08
     .169292766009D-09  .100000000000D+01  .159300000000D+04  .000000000000D+00
     .240000000000D+01  .000000000000D+00 -.107102096081D-07  .200000000000D+02
     .432060000000D+05  .400000000000D+01
19 10  7 18 14  0  0.0 -.506131909788D-04 -.295585778076D-11  .000000000000D+00
     .800000000000D+01 -.295000000000D+02  .454983237592D-08 -.246940968524D+01
    -.149197876453D-05  .667241448537D-02  .840611755848D-05  .515376126289D+04
     .504000000000D+05 -.111758708954D-06 -.260095218046D+01  .186264514923D-08
     .958087388871D+00  .217843750000D+03 -.118969416537D+00 -.799319009131D-08
    -.157863718515D-09  .100000000000D+01  .159300000000D+04  .000000000000D+00
     .240000000000D+01  .000000000000D+00 -.149011611938D-07  .800000000000D+01
     .432060000000D+05  .400000000000D+01
20 10  7 18 14  0  0.0  .532222911716D-04 -.454747350886D-12  .000000000000D+00
     .190000000000D+02  .729687500000D+02  .526664794846D-08 -.901632195229D-01
     .358745455742D-05  .413503090385D-02  .516138970852D-05  .515357272530D+04
     .504000000000D+05 -.149011611938D-07 -.617485570261D+00  .689178705215D-07
     .936619664391D+00  .271875000000D+03  .131673571078D+01 -.858500045687D-08
     .124290891500D-09  .100000000000D+01  .159300000000D+04  .000000000000D+00
     .240000000000D+01  .000000000000D+00 -.791624188423D-08  .190000000000D+02
     .432060000000D+05  .400000000000D+01
23 10  7 18 14  0  0.0  .362468883395D-03 -.159161572810D-11  .000000000000D+00
     .380000000000D+02 -.307500000000D+02  .455197532233D-08 -.296451985846D+01
    -.148080289364D-05  .689682119992D-02  .545382499695D-05  .515366830254D+04
     .504000000000D+05 -.135973095894D-06  .470503327906D+00 -.111758708954D-07
     .967730535233D+00  .281125000000D+03  .304703437026D+01 -.807426489697D-08
    -.132862677121D-09  .100000000000D+01  .159300000000D+04  .000000000000D+00
     .240000000000D+01  .000000000000D+00 -.200234353542D-07  .380000000000D+02
     .432060000000D+05  .400000000000D+01
24 10  7 18 14  0  0.0  .305424910039D-03  .318323145621D-11  .000000000000D+00
     .150000000000D+02  .458750000000D+02  .454518932538D-08 -.218889211091D+01
     .248663127422D-05  .569237757009D-02  .102557241917D-04  .515482973862D+04
     .504000000000D+05 -.745058059692D-07 -.158078837912D+01  .465661287308D-07
     .948671170362D+00  .177125000000D+03 -.453484542114D+00 -.797283210046D-08
     .621454457501D-10  .100000000000D+01  .159300000000D+04  .000000000000D+00
     .240000000000D+01  .000000000000D+00 -.139698386192D-08  .150000000000D+02
     .432060000000D+05  .400000000000D+01
25 10  7 18 14  0  0.0 -.183298252523D-04 -.193267624127D-11  .000000000000D+00
     .110000000000D+02 -.169375000000D+02  .469412410054D-08 -.105930930940D+01
    -.823289155960D-06  .926156877540D-03  .693276524544D-05  .515600190353D+04
     .504000000000D+05 -.149011611938D-07  .254101343070D+01 -.353902578354D-07
     .960282416989D+00  .241812500000D+03  .211460000039D+01 -.810783772399D-08
     .195722438339D-09  .100000000000D+01  .159300000000D+04  .100000000000D+01
     .240000000000D+01  .630000000000D+02  .465661287308D-08  .110000000000D+02
     .432060000000D+05  .400000000000D+01
26 10  7 18 14  0  0.0 -.833957456052D-04 -.613908923697D-11  .000000000000D+00
     .340000000000D+02 -.472500000000D+02  .402731061080D-08  .283129706284D+01
    -.260397791862D-05  .193456487032D-01  .488758087158D-05  .515238212585D+04
     .504000000000D+05  .800937414169D-07  .528831540916D+00 -.249594449997D-06
     .990397836445D+00  .298906250000D+03  .110539623061D+01 -.769889211833D-08
    -.247867467532D-09  .100000000000D+01  .159300000000D+04  .000000000000D+00
     .240000000000D+01  .000000000000D+00 -.605359673500D-08  .340000000000D+02
     .432060000000D+05  .400000000000D+01
27 10  7 18 14  0  0.0  .171293970197D-03  .352429196937D-11  .000000000000D+00
     .830000000000D+02 -.527812500000D+02  .393730686178D-08 -.217448248193D+01
    -.244006514549D-05  .215243838029D-01  .888481736183D-05  .515361217880D+04
     .504000000000D+05  .227242708206D-06  .145701566271D+01  .298023223877D-06
     .978651890174D+00  .211062500000D+03 -.139676825625D+01 -.748245453141D-08
     .112504686272D-09  .100000000000D+01  .159300000000D+04  .000000000000D+00
     .240000000000D+01  .000000000000D+00 -.419095158577D-08  .830000000000D+02
     .432060000000D+05  .400000000000D+01
28 10  7 18 14  0  0.0 -.101933255792D-04  .125055521494D-11  .000000000000D+00
     .380000000000D+02 -.164375000000D+02  .452268838813D-08 -.111513446226D+01
    -.787898898125D-06  .160305059981D-01  .681914389133D-05  .515367156410D+04
     .504000000000D+05  .670552253723D-07  .259233049763D+01  .407919287682D-06
     .971058747009D+00  .254000000000D+03 -.195129052873D+01 -.817426906255D-08
     .100718481043D-09  .100000000000D+01  .159300000000D+04  .000000000000D+00
     .240000000000D+01  .000000000000D+00 -.107102096081D-07  .380000000000D+02
     .432060000000D+05  .400000000000D+01
29 10  7 18 14  0  0.0  .135432928801D-03  .272848410532D-11  .000000000000D+00
     .650000000000D+02 -.325312500000D+02  .467448042516D-08  .941521657105D+00
    -.181980431080D-05  .291115324944D-02  .773556530476D-05  .515370005798D+04
     .504000000000D+05  .260770320892D-07 -.264755282731D+01 -.707805156708D-07
     .960854407717D+00  .231875000000D+03 -.126320778842D+01 -.810355183117D-08
    -.267868300647D-09  .100000000000D+01  .159300000000D+04  .000000000000D+00
     .240000000000D+01  .000000000000D+00 -.884756445885D-08  .650000000000D+02
     .432060000000D+05  .400000000000D+01
31 10  7 18 14  0  0.0 -.236625783145D-04  .261479726760D-11  .000000000000D+00
     .550000000000D+02 -.430625000000D+02  .407552690491D-08  .168021291900D+01
    -.227242708206D-05  .733362848405D-02  .815466046333D-05  .515372940636D+04
     .504000000000D+05  .137835741043D-06  .151280215504D+01 -.577419996262D-07
     .977163780645D+00  .226250000000D+03 -.105042622505D+01 -.778068123946D-08
    -.310727228751D-10  .100000000000D+01  .159300000000D+04  .000000000000D+00
     .240000000000D+01  .000000000000D+00 -.130385160446D-07  .550000000000D+02
     .432060000000D+05  .400000000000D+01
32 10  7 18 14  0  0.0 -.407388433814D-04 -.875388650456D-11  .000000000000D+00
     .770000000000D+02  .726875000000D+02  .468448084172D-08  .246538935814D+01
     .351667404175D-05  .126407202333D-01  .476278364658D-05  .515368883514D+04
     .504000000000D+05  .238418579102D-06 -.499189984032D+00  .115483999252D-06
     .958614291002D+00  .284437500000D+03 -.961893568168D+00 -.813355308085D-08
     .392873507616D-11  .100000000000D+01  .159300000000D+04  .000000000000D+00
     .240000000000D+01  .000000000000D+00 -.325962901115D-08  .770000000000D+02
     .432060000000D+05  .400000000000D+01
 7 10  7 18 13 59 44.0 -.174529850483D-05 -.113686837722D-12  .000000000000D+00
     .000000000000D+00 -.397812500000D+02  .427446376286D-08  .173461336959D+01
    -.187754631042D-05  .379018019885D-02  .897236168385D-05  .515370999336D+04
     .503840000000D+05  .707805156708D-07  .151297891504D+01  .577419996262D-07
     .971923355000D+00  .212000000000D+03  .303934110937D+01 -.798711840983D-08
     .210723063176D-10  .100000000000D+01  .159300000000D+04  .000000000000D+00
     .240000000000D+01  .000000000000D+00 -.102445483208D-07  .000000000000D+00
     .485160000000D+05  .400000000000D+01
 7 10  7 18 15 59 44.0 -.174622982740D-05 -.113686837722D-12  .000000000000D+00
     .120000000000D+02 -.361562500000D+02  .429089301863D-08  .278505368985D+01
    -.182539224625D-05  .379041396081D-02  .861845910549D-05  .515370816422D+04
     .575840000000D+05 -.100582838058D-06  .151292099958D+01  .204890966415D-07
     .971924264935D+00  .221625000000D+03  .303905950057D+01 -.788890003292D-08
     .141791620476D-09  .100000000000D+01  .159300000000D+04  .000000000000D+00
     .240000000000D+01  .000000000000D+00 -.102445483208D-07  .120000000000D+02
     .504060000000D+05  .400000000000D+01
 1 10  7 18 16  0  0.0 -.142456963658D-03 -.409272615798D-11  .000000000000D+00
     .210000000000D+02 -.169375000000D+02  .463697886307D-08 -.451600337275D+00
    -.881031155586D-06  .443865242414D-02  .702776014805D-05  .515359760857D+04
     .576000000000D+05 -.316649675369D-07  .255246477745D+01  .242143869400D-07
     .965512151628D+00  .242750000000D+03  .928016129060D+00 -.812998150351D-08
     .157863718515D-09  .100000000000D+01  .159300000000D+04  .000000000000D+00
     .240000000000D+01  .630000000000D+02 -.190921127796D-07  .210000000000D+02
     .504060000000D+05  .400000000000D+01
 2 10  7 18 16  0  0.0  .273846555501D-03  .306954461848D-11  .000000000000D+00
     .520000000000D+02  .494062500000D+02  .467590905610D-08 -.189900945583D+01
     .250339508057D-05  .961148587521D-02  .105854123831D-04  .515361317253D+04
     .576000000000D+05 -.782310962677D-07 -.164850400432D+01 -.135973095894D-06
     .939370438995D+00  .165062500000D+03  .310814612285D+01 -.803033449566D-08
     .178578867098D-10  .100000000000D+01  .159300000000D+04  .000000000000D+00
     .240000000000D+01  .000000000000D+00 -.172294676304D-07  .520000000000D+02
     .504060000000D+05  .400000000000D+01
